[
    {
        "Altitude(m)": 611965.183084701,
        "Argument of Periapsis(deg)": 0.0,
        "Eccentricity": 0.0,
        "Inclination(deg)": 60.0,
        "Latitude(deg)": 59.14015467950311,
        "Longitude(deg)": -141.0300481214902,
        "Mean Anomaly(deg)": 81.8182,
        "RAAN(deg)": 245.0,
        "Satellite Name": "Test1 1083",
        "Satellite Number": 1083,
        "Semi-Major Axis(m)": 6980739.136638005,
        "Time(s)": 0
    },
    {
        "Altitude(m)": 611995.8080736044,
        "Argument of Periapsis(deg)": 0.00010418945913296404,
        "Eccentricity": 0.0,
        "Inclination(deg)": 60.0,
        "Latitude(deg)": 59.28325307813987,
        "Longitude(deg)": -139.8966854342083,
        "Mean Anomaly(deg)": 82.43830614546187,
        "RAAN(deg)": 244.99957995086027,
        "Satellite Name": "Test1 1083",
        "Satellite Number": 1083,
        "Semi-Major Axis(m)": 6980739.136638005,
        "Time(s)": 10
    }
]